{
    "links": {
        "self": "http://www.neowsapp.com/rest/v1/neo/3429817?api_key=iIulBulltgU6a56xZRHN4H3l9WmuAYTsLGpBGhQ2"
    },
    "id": "3429817",
    "neo_reference_id": "3429817",
    "name": "(2008 TB2)",
    "designation": "2008 TB2",
    "nasa_jpl_url": "http://ssd.jpl.nasa.gov/sbdb.cgi?sstr=3429817",
    "absolute_magnitude_h": 24.5,
    "estimated_diameter": {
        "kilometers": {
            "estimated_diameter_min": 0.0334622374,
            "estimated_diameter_max": 0.0748238376
        },
        "meters": {
            "estimated_diameter_min": 33.4622374455,
            "estimated_diameter_max": 74.8238376074
        },
        "miles": {
            "estimated_diameter_min": 0.0207924639,
            "estimated_diameter_max": 0.0464933628
        },
        "feet": {
            "estimated_diameter_min": 109.7842471007,
            "estimated_diameter_max": 245.4850393757
        }
    },
    "is_potentially_hazardous_asteroid": false,
    "close_approach_data": [
        {
            "close_approach_date": "2008-10-05",
            "close_approach_date_full": "2008-Oct-05 17:30",
            "epoch_date_close_approach": 1223227800000,
            "relative_velocity": {
                "kilometers_per_second": "6.0448619006",
                "kilometers_per_hour": "21761.5028422567",
                "miles_per_hour": "13521.7515855122"
            },
            "miss_distance": {
                "astronomical": "0.0585083111",
                "lunar": "22.7597330179",
                "kilometers": "8752718.717857357",
                "miles": "5438687.2159992466"
            },
            "orbiting_body": "Earth"
        }
    ],
    "orbital_data": {
        "orbit_id": "13",
        "orbit_determination_date": "2017-04-06 09:02:43",
        "first_observation_date": "2008-10-03",
        "last_observation_date": "2008-10-19",
        "data_arc_in_days": 16,
        "observations_used": 69,
        "orbit_uncertainty": "8",
        "minimum_orbit_intersection": ".0575498",
        "jupiter_tisserand_invariant": "3.612",
        "epoch_osculation": "2454744.5",
        "eccentricity": ".4899932801923249",
        "semi_major_axis": "2.069204055715288",
        "inclination": "3.913300077766006",
        "ascending_node_longitude": "10.12944130053807",
        "orbital_period": "1087.184891267039",
        "perihelion_distance": "1.055307973068092",
        "perihelion_argument": "9.409673558689642",
        "aphelion_distance": "3.083100138362485",
        "perihelion_time": "2454750.886980490776",
        "mean_anomaly": "357.8850764068293",
        "mean_motion": ".331130429508126",
        "equinox": "J2000",
        "orbit_class": {
            "orbit_class_type": "AMO",
            "orbit_class_description": "Near-Earth asteroid orbits similar to that of 1221 Amor",
            "orbit_class_range": "1.017 AU < q (perihelion) < 1.3 AU"
        }
    },
    "is_sentry_object": false
}